{
    "links": {
        "self": "http://www.neowsapp.com/rest/v1/neo/3759661?api_key=iIulBulltgU6a56xZRHN4H3l9WmuAYTsLGpBGhQ2"
    },
    "id": "3759661",
    "neo_reference_id": "3759661",
    "name": "(2016 RB41)",
    "designation": "2016 RB41",
    "nasa_jpl_url": "http://ssd.jpl.nasa.gov/sbdb.cgi?sstr=3759661",
    "absolute_magnitude_h": 24.1,
    "estimated_diameter": {
        "kilometers": {
            "estimated_diameter_min": 0.040230458,
            "estimated_diameter_max": 0.0899580388
        },
        "meters": {
            "estimated_diameter_min": 40.2304579834,
            "estimated_diameter_max": 89.9580388169
        },
        "miles": {
            "estimated_diameter_min": 0.0249980399,
            "estimated_diameter_max": 0.0558973165
        },
        "feet": {
            "estimated_diameter_min": 131.9896957704,
            "estimated_diameter_max": 295.1379320721
        }
    },
    "is_potentially_hazardous_asteroid": false,
    "close_approach_data": [
        {
            "close_approach_date": "1997-09-22",
            "close_approach_date_full": "1997-Sep-22 20:59",
            "epoch_date_close_approach": 874961940000,
            "relative_velocity": {
                "kilometers_per_second": "8.0808626197",
                "kilometers_per_hour": "29091.1054308011",
                "miles_per_hour": "18076.0815939331"
            },
            "miss_distance": {
                "astronomical": "0.2964986549",
                "lunar": "115.3379767561",
                "kilometers": "44355567.230905063",
                "miles": "27561271.4441453494"
            },
            "orbiting_body": "Earth"
        },
        {
            "close_approach_date": "2016-10-01",
            "close_approach_date_full": "2016-Oct-01 18:14",
            "epoch_date_close_approach": 1475345640000,
            "relative_velocity": {
                "kilometers_per_second": "4.6667114705",
                "kilometers_per_hour": "16800.1612937289",
                "miles_per_hour": "10438.9668883173"
            },
            "miss_distance": {
                "astronomical": "0.1649915005",
                "lunar": "64.1816936945",
                "kilometers": "24682377.042903935",
                "miles": "15336917.912126903"
            },
            "orbiting_body": "Earth"
        },
        {
            "close_approach_date": "2035-10-11",
            "close_approach_date_full": "2035-Oct-11 23:02",
            "epoch_date_close_approach": 2075756520000,
            "relative_velocity": {
                "kilometers_per_second": "8.3965645899",
                "kilometers_per_hour": "30227.6325237975",
                "miles_per_hour": "18782.2753312452"
            },
            "miss_distance": {
                "astronomical": "0.3391883528",
                "lunar": "131.9442692392",
                "kilometers": "50741855.107688536",
                "miles": "31529526.7203363568"
            },
            "orbiting_body": "Earth"
        },
        {
            "close_approach_date": "2058-10-04",
            "close_approach_date_full": "2058-Oct-04 13:15",
            "epoch_date_close_approach": 2800962900000,
            "relative_velocity": {
                "kilometers_per_second": "4.103970964",
                "kilometers_per_hour": "14774.2954703251",
                "miles_per_hour": "9180.1726493251"
            },
            "miss_distance": {
                "astronomical": "0.1903260923",
                "lunar": "74.0368499047",
                "kilometers": "28472378.013503401",
                "miles": "17691915.3125768938"
            },
            "orbiting_body": "Earth"
        }
    ],
    "orbital_data": {
        "orbit_id": "8",
        "orbit_determination_date": "2018-02-10 07:08:15",
        "first_observation_date": "2016-09-12",
        "last_observation_date": "2016-11-07",
        "data_arc_in_days": 56,
        "observations_used": 40,
        "orbit_uncertainty": "6",
        "minimum_orbit_intersection": ".166783",
        "jupiter_tisserand_invariant": "3.300",
        "epoch_osculation": "2459000.5",
        "eccentricity": ".5221836437651255",
        "semi_major_axis": "2.439059612372598",
        "inclination": "2.735202368571452",
        "ascending_node_longitude": "211.672658730052",
        "orbital_period": "1391.336086019499",
        "perihelion_distance": "1.16542257662352",
        "perihelion_argument": "160.2452323313346",
        "aphelion_distance": "3.712696648121676",
        "perihelion_time": "2459054.236536256992",
        "mean_anomaly": "346.0959884194033",
        "mean_motion": ".2587440975745344",
        "equinox": "J2000",
        "orbit_class": {
            "orbit_class_type": "AMO",
            "orbit_class_description": "Near-Earth asteroid orbits similar to that of 1221 Amor",
            "orbit_class_range": "1.017 AU < q (perihelion) < 1.3 AU"
        }
    },
    "is_sentry_object": false
}